NORAD_CAT_ID,OBJECT_NAME,OBJECT_TYPE,EPOCH,MEAN_MOTION,ECCENTRICITY,INCLINATION,RA_OF_ASC_NODE,ARG_OF_PERICENTER,MEAN_ANOMALY,BSTAR,MEAN_MOTION_DOT,MEAN_MOTION_DDOT,TLE_LINE0,TLE_LINE1,TLE_LINE2,SEMIMAJOR_AXIS,PERIOD,APOGEE,PERIGEE,DECAYED
56817.0,STARLINK-5982,PAYLOAD,2023-12-20 21:38:08,14.98331552,0.0002141,69.9997,226.1401,248.8313,111.2617,4.2503e-05,4.14e-06,0.0,0 STARLINK-5982,1 56817U 23078BC  23354.90149253  .00000414  00000-0  42503-4 0  9994,2 56817  69.9997 226.1401 0002141 248.8313 111.2617 14.98331552 31386,6950.188,96.107,573.541,570.565,0.0
56817.0,STARLINK-5982,PAYLOAD,2023-12-21 00:50:24,14.98333257,0.0002108,69.9998,225.8036,248.2149,111.8785,7.311e-05,7.8e-06,0.0,0 STARLINK-5982,1 56817U 23078BC  23355.03501033  .00000780  00000-0  73110-4 0  9991,2 56817  69.9998 225.8036 0002108 248.2149 111.8785 14.98333257 31668,6950.183,96.107,573.513,570.583,0.0
56817.0,STARLINK-5982,PAYLOAD,2023-12-21 21:40:10,14.98326489,0.0002246,70.0004,223.6168,250.7587,109.3329,4.2044e-05,4.09e-06,0.0,0 STARLINK-5982,1 56817U 23078BC  23355.90289539  .00000409  00000-0  42044-4 0  9991,2 56817  70.0004 223.6168 0002246 250.7587 109.3329 14.98326489 31539,6950.204,96.107,573.63,570.508,0.0
56817.0,STARLINK-5982,PAYLOAD,2023-12-22 00:52:26,14.98325377,0.0002229,69.9995,223.2783,256.2193,103.8718,1.106e-05,3.9e-07,0.0,0 STARLINK-5982,1 56817U 23078BC  23356.03641719  .00000039  00000-0  11060-4 0  9991,2 56817  69.9995 223.2783 0002229 256.2193 103.8718 14.98325377 31816,6950.207,96.107,573.621,570.523,0.0
56817.0,STARLINK-5982,PAYLOAD,2023-12-22 20:06:02,14.98335825,0.000227,69.9994,221.2585,260.3769,99.7134,-1.7134e-05,-2.97e-06,0.0,0 STARLINK-5982,1 56817U 23078BC  23356.83753058 -.00000297  00000-0 -17134-4 0  9995,2 56817  69.9994 221.2585 0002270 260.3769  99.7134 14.98335825 31931,6950.175,96.107,573.618,570.462,0.0
56817.0,STARLINK-5982,PAYLOAD,2023-12-22 21:42:10,14.98336534,0.0002247,69.9994,221.09,258.9726,101.118,-5.9359e-06,-1.64e-06,0.0,0 STARLINK-5982,1 56817U 23078BC  23356.90428950 -.00000164  00000-0 -59359-5 0  9992,2 56817  69.9994 221.0900 0002247 258.9726 101.1180 14.98336534 31689,6950.173,96.107,573.599,570.476,0.0
56817.0,STARLINK-5982,PAYLOAD,2023-12-23 00:54:26,14.98341261,0.0002177,69.9997,220.7543,254.9521,105.1397,4.9284e-05,4.95e-06,0.0,0 STARLINK-5982,1 56817U 23078BC  23357.03780405  .00000495  00000-0  49284-4 0  9993,2 56817  69.9997 220.7543 0002177 254.9521 105.1397 14.98341261 31960,6950.158,96.106,573.536,570.51,0.0
56817.0,STARLINK-5982,PAYLOAD,2023-12-23 13:43:31,14.98331587,0.0001391,70.0012,219.4099,271.0322,89.0677,0.00010314,1.138e-05,0.0,0 STARLINK-5982,1 56817U 23078BC  23357.57188875  .00001138  00000-0  10314-3 0  9991,2 56817  70.0012 219.4099 0001391 271.0322  89.0677 14.98331587 31789,6950.188,96.107,573.02,571.086,0.0
56817.0,STARLINK-5982,PAYLOAD,2023-12-23 20:08:04,14.98325343,0.000254,69.9988,218.7326,271.2405,88.8463,-2.6449e-05,-4.08e-06,0.0,0 STARLINK-5982,1 56817U 23078BC  23357.83893549 -.00000408  00000-0 -26449-4 0  9999,2 56817  69.9988 218.7326 0002540 271.2405  88.8463 14.98325343 32081,6950.207,96.107,573.838,570.307,0.0
56817.0,STARLINK-5982,PAYLOAD,2023-12-23 21:44:12,14.983216,0.0002026,70.0006,218.5668,240.0027,120.0931,-2.5841e-05,-4.01e-06,0.0,0 STARLINK-5982,1 56817U 23078BC  23357.90569737 -.00000401  00000-0 -25841-4 0  9994,2 56817  70.0006 218.5668 0002026 240.0027 120.0931 14.98321600 31838,6950.219,96.108,573.492,570.676,0.0
56817.0,STARLINK-5982,PAYLOAD,2023-12-24 00:56:28,14.98322068,0.0002102,69.9999,218.2294,257.2316,102.8608,-4.1095e-05,-5.83e-06,0.0,0 STARLINK-5982,1 56817U 23078BC  23358.03921836 -.00000583  00000-0 -41095-4 0  9991,2 56817  69.9999 218.2294 0002102 257.2316 102.8608 14.98322068 31854,6950.217,96.108,573.543,570.621,0.0
56817.0,STARLINK-5982,PAYLOAD,2023-12-24 20:10:04,14.98335195,0.0002272,69.9996,216.2097,258.4611,101.6293,-7.062e-05,-9.35e-06,0.0,0 STARLINK-5982,1 56817U 23078BC  23358.84033086 -.00000935  00000-0 -70620-4 0  9998,2 56817  69.9996 216.2097 0002272 258.4611 101.6293 14.98335195 32234,6950.177,96.107,573.621,570.463,0.0
56817.0,STARLINK-5982,PAYLOAD,2023-12-24 21:46:12,14.98333615,0.0002339,69.9994,216.0408,258.3912,101.6985,-3.7856e-05,-5.45e-06,0.0,0 STARLINK-5982,1 56817U 23078BC  23358.90709074 -.00000545  00000-0 -37856-4 0  9993,2 56817  69.9994 216.0408 0002339 258.3912 101.6985 14.98333615 31987,6950.182,96.107,573.672,570.421,0.0
56817.0,STARLINK-5982,PAYLOAD,2023-12-25 00:58:28,14.98335843,0.000231,69.999,215.7036,257.084,103.0061,-2.7419e-05,-4.2e-06,0.0,0 STARLINK-5982,1 56817U 23078BC  23359.04060860 -.00000420  00000-0 -27419-4 0  9998,2 56817  69.9990 215.7036 0002310 257.0840 103.0061 14.98335843 32001,6950.175,96.107,573.645,570.434,0.0
56817.0,STARLINK-5982,PAYLOAD,2023-12-25 20:12:05,14.98326894,0.0002437,69.9991,213.6839,263.1454,96.9428,3.6547e-05,3.43e-06,0.0,0 STARLINK-5982,1 56817U 23078BC  23359.84173195  .00000343  00000-0  36547-4 0  9996,2 56817  69.9991 213.6839 0002437 263.1454  96.9428 14.98326894 32383,6950.202,96.107,573.761,570.374,0.0
56817.0,STARLINK-5982,PAYLOAD,2023-12-25 21:48:13,14.98326813,0.0002438,69.9991,213.5156,263.5485,96.5396,3.4933e-05,3.24e-06,0.0,0 STARLINK-5982,1 56817U 23078BC  23359.90849217  .00000324  00000-0  34933-4 0  9994,2 56817  69.9991 213.5156 0002438 263.5485  96.5396 14.98326813 32137,6950.203,96.107,573.762,570.373,0.0
56817.0,STARLINK-5982,PAYLOAD,2023-12-26 01:00:29,14.98327781,0.000243,69.9991,213.1788,266.616,93.4721,4.4115e-05,4.33e-06,0.0,0 STARLINK-5982,1 56817U 23078BC  23360.04201154  .00000433  00000-0  44115-4 0  9997,2 56817  69.9991 213.1788 0002430 266.6160  93.4721 14.98327781 32155,6950.2,96.107,573.754,570.376,0.0
56817.0,STARLINK-5982,PAYLOAD,2023-12-26 20:14:06,14.98330902,0.0002437,69.9991,211.159,264.4904,95.5977,-8.9767e-06,-2e-06,0.0,0 STARLINK-5982,1 56817U 23078BC  23360.84313076 -.00000200  00000-0 -89767-5 0  9999,2 56817  69.9991 211.1590 0002437 264.4904  95.5977 14.98330902 32530,6950.19,96.107,573.749,570.361,0.0
56817.0,STARLINK-5982,PAYLOAD,2023-12-26 21:50:14,14.98331009,0.0002431,69.9991,210.9907,264.2384,95.8498,-7.2673e-06,-1.8e-06,0.0,0 STARLINK-5982,1 56817U 23078BC  23360.90989056 -.00000180  00000-0 -72673-5 0  9998,2 56817  69.9991 210.9907 0002431 264.2384  95.8498 14.98331009 32285,6950.19,96.107,573.744,570.365,0.0
56817.0,STARLINK-5982,PAYLOAD,2023-12-27 13:51:35,14.98328658,0.0002431,69.9991,209.3073,266.6079,93.4802,-1.1993e-05,-2.36e-06,0.0,0 STARLINK-5982,1 56817U 23078BC  23361.57749180 -.00000236  00000-0 -11993-4 0  9993,2 56817  69.9991 209.3073 0002431 266.6079  93.4802 14.98328658 32388,6950.197,96.107,573.752,570.372,0.0
56817.0,STARLINK-5982,PAYLOAD,2023-12-27 21:52:15,14.98328656,0.0002454,69.999,208.4656,266.2997,93.7881,-1.3015e-05,-2.48e-06,0.0,0 STARLINK-5982,1 56817U 23078BC  23361.91129180 -.00000248  00000-0 -13015-4 0  9993,2 56817  69.9990 208.4656 0002454 266.2997  93.7881 14.98328656 32438,6950.197,96.107,573.768,570.356,0.0
56817.0,STARLINK-5982,PAYLOAD,2023-12-27 23:28:23,14.98328495,0.000246,69.999,208.2972,266.5824,93.5054,-1.5072e-05,-2.73e-06,0.0,0 STARLINK-5982,1 56817U 23078BC  23361.97805199 -.00000273  00000-0 -15072-4 0  9993,2 56817  69.9990 208.2972 0002460 266.5824  93.5054 14.98328495 32707,6950.198,96.107,573.772,570.353,0.0
56817.0,STARLINK-5982,PAYLOAD,2023-12-28 20:18:08,14.98331792,0.0002508,69.9989,206.1088,265.9049,94.1824,1.3464e-05,6.8e-07,0.0,0 STARLINK-5982,1 56817U 23078BC  23362.84592842  .00000068  00000-0  13464-4 0  9991,2 56817  69.9989 206.1088 0002508 265.9049  94.1824 14.98331792 32576,6950.187,96.107,573.795,570.309,0.0
56817.0,STARLINK-5982,PAYLOAD,2023-12-28 23:30:24,14.98332346,0.0002482,69.9989,205.7722,267.1259,92.9616,2.0402e-05,1.51e-06,0.0,0 STARLINK-5982,1 56817U 23078BC  23362.97944768  .00000151  00000-0  20402-4 0  9996,2 56817  69.9989 205.7722 0002482 267.1259  92.9616 14.98332346 32856,6950.186,96.107,573.776,570.326,0.0
56817.0,STARLINK-5982,PAYLOAD,2023-12-29 13:55:37,14.98311726,0.0002395,69.9988,204.2572,270.1619,89.9265,0.0002913,3.383e-05,0.0,0 STARLINK-5982,1 56817U 23078BC  23363.58029077  .00003383  00000-0  29130-3 0  9997,2 56817  69.9988 204.2572 0002395 270.1619  89.9265 14.98311726 32685,6950.249,96.108,573.779,570.45,0.0
56817.0,STARLINK-5982,PAYLOAD,2023-12-29 21:56:17,14.98330052,0.0002477,69.999,203.4156,267.9597,92.1278,1.638e-05,1.03e-06,0.0,0 STARLINK-5982,1 56817U 23078BC  23363.91408860  .00000103  00000-0  16380-4 0  9996,2 56817  69.9990 203.4156 0002477 267.9597  92.1278 14.98330052 32736,6950.193,96.107,573.779,570.336,0.0
56817.0,STARLINK-5982,PAYLOAD,2023-12-29 23:32:25,14.98330793,0.0002472,69.999,203.2475,267.8866,92.201,2.4516e-05,2e-06,0.0,0 STARLINK-5982,1 56817U 23078BC  23363.98084788  .00000200  00000-0  24516-4 0  9990,2 56817  69.9990 203.2475 0002472 267.8866  92.2010 14.98330793 33009,6950.19,96.107,573.774,570.337,0.0
56817.0,STARLINK-5982,PAYLOAD,2023-12-30 13:57:37,14.98331884,0.0002369,69.9994,201.733,266.8265,93.2623,-5.2261e-06,-1.55e-06,0.0,0 STARLINK-5982,1 56817U 23078BC  23364.58168753 -.00000155  00000-0 -52261-5 0  9992,2 56817  69.9994 201.7330 0002369 266.8265  93.2623 14.98331884 32836,6950.187,96.107,573.699,570.406,0.0
56817.0,STARLINK-5982,PAYLOAD,2023-12-30 21:58:18,14.98331111,0.0002387,69.9995,200.8913,266.0061,94.0825,-1.6336e-05,-2.88e-06,0.0,0 STARLINK-5982,1 56817U 23078BC  23364.91548777 -.00000288  00000-0 -16336-4 0  9996,2 56817  69.9995 200.8913 0002387 266.0061  94.0825 14.98331111 32881,6950.189,96.107,573.713,570.395,0.0
56817.0,STARLINK-5982,PAYLOAD,2023-12-30 23:34:26,14.98331062,0.0002397,69.9994,200.723,266.8221,93.2664,-1.6835e-05,-2.94e-06,0.0,0 STARLINK-5982,1 56817U 23078BC  23364.98224777 -.00000294  00000-0 -16835-4 0  9995,2 56817  69.9994 200.7230 0002397 266.8221  93.2664 14.98331062 33156,6950.19,96.107,573.721,570.389,0.0
